STARLINK-1477           
1 45754U 20038AA  26068.63330424  .00035702  00000+0  19315-2 0  9992
2 45754  53.0515 213.2201 0000598  95.7123 264.3937 15.14348726316528
HAWK-12A                
1 64623U 25138C   26068.95472913  .00006470  00000+0  32645-3 0  9991
2 64623  97.4429  73.3872 0015988 120.0729 240.2092 15.17349328 38812
