[{"OBJECT_NAME":"STARLINK-1477","OBJECT_ID":"2020-038AA","EPOCH":"2026-03-09T15:11:57.486336","MEAN_MOTION":15.14348726,"ECCENTRICITY":5.98e-5,"INCLINATION":53.0515,"RA_OF_ASC_NODE":213.2201,"ARG_OF_PERICENTER":95.7123,"MEAN_ANOMALY":264.3937,"EPHEMERIS_TYPE":0,"CLASSIFICATION_TYPE":"U","NORAD_CAT_ID":45754,"ELEMENT_SET_NO":999,"REV_AT_EPOCH":31652,"BSTAR":0.0019315,"MEAN_MOTION_DOT":0.00035702,"MEAN_MOTION_DDOT":0},{"OBJECT_NAME":"HAWK-12A","OBJECT_ID":"2025-138C","EPOCH":"2026-03-09T22:54:48.597696","MEAN_MOTION":15.17349329,"ECCENTRICITY":0.00159877,"INCLINATION":97.4429,"RA_OF_ASC_NODE":73.3872,"ARG_OF_PERICENTER":120.0729,"MEAN_ANOMALY":240.2092,"EPHEMERIS_TYPE":0,"CLASSIFICATION_TYPE":"U","NORAD_CAT_ID":64623,"ELEMENT_SET_NO":999,"REV_AT_EPOCH":3881,"BSTAR":0.00032645128,"MEAN_MOTION_DOT":6.47e-5,"MEAN_MOTION_DDOT":0}]
